[{"OBJECT_NAME":"ONEWEB-0509","OBJECT_ID":"2022-138Q","EPOCH":"2025-10-30T03:21:01.764864","MEAN_MOTION":13.19725457,"ECCENTRICITY":0.00019574,"INCLINATION":87.9254,"RA_OF_ASC_NODE":350.7159,"ARG_OF_PERICENTER":101.8739,"MEAN_ANOMALY":258.2613,"EPHEMERIS_TYPE":0,"CLASSIFICATION_TYPE":"U","NORAD_CAT_ID":54127,"ELEMENT_SET_NO":999,"REV_AT_EPOCH":14646,"BSTAR":0.00026912183,"MEAN_MOTION_DOT":1.21e-6,"MEAN_MOTION_DDOT":0},{"OBJECT_NAME":"ONEWEB-0510","OBJECT_ID":"2022-138R","EPOCH":"2025-10-30T06:50:58.231680","MEAN_MOTION":13.20771289,"ECCENTRICITY":0.0001792,"INCLINATION":87.9191,"RA_OF_ASC_NODE":320.2892,"ARG_OF_PERICENTER":75.8485,"MEAN_ANOMALY":284.2848,"EPHEMERIS_TYPE":0,"CLASSIFICATION_TYPE":"U","NORAD_CAT_ID":54128,"ELEMENT_SET_NO":999,"REV_AT_EPOCH":14893,"BSTAR":-0.00012145123,"MEAN_MOTION_DOT":-3.6e-7,"MEAN_MOTION_DDOT":0},{"OBJECT_NAME":"ONEWEB-0511","OBJECT_ID":"2022-138S","EPOCH":"2025-10-30T05:05:39.705504","MEAN_MOTION":13.19725616,"ECCENTRICITY":0.00016251,"INCLINATION":87.9253,"RA_OF_ASC_NODE":350.7056,"ARG_OF_PERICENTER":100.7975,"MEAN_ANOMALY":259.334,"EPHEMERIS_TYPE":0,"CLASSIFICATION_TYPE":"U","NORAD_CAT_ID":54129,"ELEMENT_SET_NO":999,"REV_AT_EPOCH":14650,"BSTAR":-6.2392277e-5,"MEAN_MOTION_DOT":-1.2e-7,"MEAN_MOTION_DDOT":0},{"OBJECT_NAME":"ONEWEB-0512","OBJECT_ID":"2022-138T","EPOCH":"2025-10-30T04:54:16.966656","MEAN_MOTION":13.19726436,"ECCENTRICITY":0.00018969,"INCLINATION":87.9232,"RA_OF_ASC_NODE":350.7384,"ARG_OF_PERICENTER":109.9671,"MEAN_ANOMALY":250.1666,"EPHEMERIS_TYPE":0,"CLASSIFICATION_TYPE":"U","NORAD_CAT_ID":54130,"ELEMENT_SET_NO":999,"REV_AT_EPOCH":14647,"BSTAR":-0.00014882319,"MEAN_MOTION_DOT":-4.7e-7,"MEAN_MOTION_DDOT":0},{"OBJECT_NAME":"ONEWEB-0513","OBJECT_ID":"2022-138U","EPOCH":"2025-10-30T03:41:12.606432","MEAN_MOTION":13.20318277,"ECCENTRICITY":0.00015756,"INCLINATION":87.9256,"RA_OF_ASC_NODE":350.7093,"ARG_OF_PERICENTER":116.0121,"MEAN_ANOMALY":244.1174,"EPHEMERIS_TYPE":0,"CLASSIFICATION_TYPE":"U","NORAD_CAT_ID":54131,"ELEMENT_SET_NO":999,"REV_AT_EPOCH":14636,"BSTAR":9.0745394e-5,"MEAN_MOTION_DOT":5.0e-7,"MEAN_MOTION_DDOT":0},{"OBJECT_NAME":"ONEWEB-0514","OBJECT_ID":"2022-138V","EPOCH":"2025-10-30T03:27:51.384672","MEAN_MOTION":13.19725529,"ECCENTRICITY":0.00018003,"INCLINATION":87.9247,"RA_OF_ASC_NODE":350.7316,"ARG_OF_PERICENTER":94.4867,"MEAN_ANOMALY":265.6471,"EPHEMERIS_TYPE":0,"CLASSIFICATION_TYPE":"U","NORAD_CAT_ID":54132,"ELEMENT_SET_NO":999,"REV_AT_EPOCH":14648,"BSTAR":-7.6873462e-5,"MEAN_MOTION_DOT":-1.8e-7,"MEAN_MOTION_DDOT":0},{"OBJECT_NAME":"ONEWEB-0515","OBJECT_ID":"2022-138W","EPOCH":"2025-10-30T02:54:36.231552","MEAN_MOTION":13.20772225,"ECCENTRICITY":0.00024916,"INCLINATION":87.9201,"RA_OF_ASC_NODE":320.3045,"ARG_OF_PERICENTER":77.4897,"MEAN_ANOMALY":282.6515,"EPHEMERIS_TYPE":0,"CLASSIFICATION_TYPE":"U","NORAD_CAT_ID":54133,"ELEMENT_SET_NO":999,"REV_AT_EPOCH":14893,"BSTAR":0.00011358541,"MEAN_MOTION_DOT":5.9e-7,"MEAN_MOTION_DDOT":0},{"OBJECT_NAME":"ONEWEB-0516","OBJECT_ID":"2022-138X","EPOCH":"2025-10-30T04:40:38.255808","MEAN_MOTION":13.19725476,"ECCENTRICITY":0.00020192,"INCLINATION":87.9233,"RA_OF_ASC_NODE":350.7453,"ARG_OF_PERICENTER":101.1309,"MEAN_ANOMALY":259.0051,"EPHEMERIS_TYPE":0,"CLASSIFICATION_TYPE":"U","NORAD_CAT_ID":54134,"ELEMENT_SET_NO":999,"REV_AT_EPOCH":14649,"BSTAR":2.388421e-5,"MEAN_MOTION_DOT":2.3e-7,"MEAN_MOTION_DDOT":0},{"OBJECT_NAME":"ONEWEB-0517","OBJECT_ID":"2022-138Y","EPOCH":"2025-10-30T04:11:04.094016","MEAN_MOTION":13.197245,"ECCENTRICITY":0.00015924,"INCLINATION":87.9252,"RA_OF_ASC_NODE":350.7217,"ARG_OF_PERICENTER":97.4702,"MEAN_ANOMALY":262.6611,"EPHEMERIS_TYPE":0,"CLASSIFICATION_TYPE":"U","NORAD_CAT_ID":54135,"ELEMENT_SET_NO":999,"REV_AT_EPOCH":14649,"BSTAR":0.00017997521,"MEAN_MOTION_DOT":8.5e-7,"MEAN_MOTION_DDOT":0},{"OBJECT_NAME":"ONEWEB-0518","OBJECT_ID":"2022-138Z","EPOCH":"2025-10-30T04:38:21.889824","MEAN_MOTION":13.19725043,"ECCENTRICITY":0.00019201,"INCLINATION":87.9234,"RA_OF_ASC_NODE":350.7475,"ARG_OF_PERICENTER":102.788,"MEAN_ANOMALY":257.3467,"EPHEMERIS_TYPE":0,"CLASSIFICATION_TYPE":"U","NORAD_CAT_ID":54136,"ELEMENT_SET_NO":999,"REV_AT_EPOCH":14649,"BSTAR":9.755189e-5,"MEAN_MOTION_DOT":5.2e-7,"MEAN_MOTION_DDOT":0},{"OBJECT_NAME":"ONEWEB-0519","OBJECT_ID":"2022-138AA","EPOCH":"2025-10-30T03:25:34.755168","MEAN_MOTION":13.19725228,"ECCENTRICITY":0.00016236,"INCLINATION":87.9255,"RA_OF_ASC_NODE":350.7199,"ARG_OF_PERICENTER":99.0964,"MEAN_ANOMALY":261.0353,"EPHEMERIS_TYPE":0,"CLASSIFICATION_TYPE":"U","NORAD_CAT_ID":54137,"ELEMENT_SET_NO":999,"REV_AT_EPOCH":14649,"BSTAR":0.00022620324,"MEAN_MOTION_DOT":1.03e-6,"MEAN_MOTION_DDOT":0},{"OBJECT_NAME":"ONEWEB-0520","OBJECT_ID":"2022-138AB","EPOCH":"2025-10-30T04:15:37.098144","MEAN_MOTION":13.19725229,"ECCENTRICITY":0.00020226,"INCLINATION":87.925,"RA_OF_ASC_NODE":350.7166,"ARG_OF_PERICENTER":106.5435,"MEAN_ANOMALY":253.5921,"EPHEMERIS_TYPE":0,"CLASSIFICATION_TYPE":"U","NORAD_CAT_ID":54138,"ELEMENT_SET_NO":999,"REV_AT_EPOCH":14648,"BSTAR":0.00022537034,"MEAN_MOTION_DOT":1.03e-6,"MEAN_MOTION_DDOT":0},{"OBJECT_NAME":"ONEWEB-0521","OBJECT_ID":"2022-138AC","EPOCH":"2025-10-30T03:14:12.532992","MEAN_MOTION":13.19726276,"ECCENTRICITY":0.00016071,"INCLINATION":87.9253,"RA_OF_ASC_NODE":350.7101,"ARG_OF_PERICENTER":90.991,"MEAN_ANOMALY":269.1407,"EPHEMERIS_TYPE":0,"CLASSIFICATION_TYPE":"U","NORAD_CAT_ID":54139,"ELEMENT_SET_NO":999,"REV_AT_EPOCH":14642,"BSTAR":0.00020195916,"MEAN_MOTION_DOT":9.4e-7,"MEAN_MOTION_DDOT":0},{"OBJECT_NAME":"ONEWEB-0522","OBJECT_ID":"2022-138AD","EPOCH":"2025-10-30T04:33:48.940128","MEAN_MOTION":13.19726806,"ECCENTRICITY":0.00019201,"INCLINATION":87.9247,"RA_OF_ASC_NODE":350.7005,"ARG_OF_PERICENTER":104.0178,"MEAN_ANOMALY":256.1168,"EPHEMERIS_TYPE":0,"CLASSIFICATION_TYPE":"U","NORAD_CAT_ID":54140,"ELEMENT_SET_NO":999,"REV_AT_EPOCH":14647,"BSTAR":-0.00016793799,"MEAN_MOTION_DOT":-5.4e-7,"MEAN_MOTION_DDOT":0},{"OBJECT_NAME":"ONEWEB-0523","OBJECT_ID":"2022-138AE","EPOCH":"2025-10-30T02:36:25.298496","MEAN_MOTION":13.20770681,"ECCENTRICITY":0.00019655,"INCLINATION":87.919,"RA_OF_ASC_NODE":320.3292,"ARG_OF_PERICENTER":68.2543,"MEAN_ANOMALY":291.88,"EPHEMERIS_TYPE":0,"CLASSIFICATION_TYPE":"U","NORAD_CAT_ID":54141,"ELEMENT_SET_NO":999,"REV_AT_EPOCH":14893,"BSTAR":-3.5573715e-5,"MEAN_MOTION_DOT":-1.0e-8,"MEAN_MOTION_DDOT":0},{"OBJECT_NAME":"ONEWEB-0524","OBJECT_ID":"2022-138AF","EPOCH":"2025-10-30T02:20:30.540480","MEAN_MOTION":13.2077003,"ECCENTRICITY":0.00026907,"INCLINATION":87.9193,"RA_OF_ASC_NODE":320.333,"ARG_OF_PERICENTER":82.6224,"MEAN_ANOMALY":277.5215,"EPHEMERIS_TYPE":0,"CLASSIFICATION_TYPE":"U","NORAD_CAT_ID":54142,"ELEMENT_SET_NO":999,"REV_AT_EPOCH":14893,"BSTAR":-7.7791792e-5,"MEAN_MOTION_DOT":-1.9e-7,"MEAN_MOTION_DDOT":0},{"OBJECT_NAME":"ONEWEB-0525","OBJECT_ID":"2022-138AG","EPOCH":"2025-10-30T05:01:06.668544","MEAN_MOTION":13.19725453,"ECCENTRICITY":0.00020251,"INCLINATION":87.925,"RA_OF_ASC_NODE":350.7195,"ARG_OF_PERICENTER":107.8181,"MEAN_ANOMALY":252.3173,"EPHEMERIS_TYPE":0,"CLASSIFICATION_TYPE":"U","NORAD_CAT_ID":54143,"ELEMENT_SET_NO":999,"REV_AT_EPOCH":14649,"BSTAR":1.0234008e-5,"MEAN_MOTION_DOT":1.7e-7,"MEAN_MOTION_DDOT":0},{"OBJECT_NAME":"ONEWEB-0526","OBJECT_ID":"2022-138AH","EPOCH":"2025-10-30T03:59:42.283968","MEAN_MOTION":13.19724626,"ECCENTRICITY":0.00019596,"INCLINATION":87.9251,"RA_OF_ASC_NODE":350.7139,"ARG_OF_PERICENTER":99.9434,"MEAN_ANOMALY":260.192,"EPHEMERIS_TYPE":0,"CLASSIFICATION_TYPE":"U","NORAD_CAT_ID":54144,"ELEMENT_SET_NO":999,"REV_AT_EPOCH":14646,"BSTAR":0.00016344371,"MEAN_MOTION_DOT":7.8e-7,"MEAN_MOTION_DDOT":0},{"OBJECT_NAME":"ONEWEB-0529","OBJECT_ID":"2022-138AJ","EPOCH":"2025-10-30T04:04:14.880288","MEAN_MOTION":13.19725424,"ECCENTRICITY":0.000199,"INCLINATION":87.9234,"RA_OF_ASC_NODE":350.7473,"ARG_OF_PERICENTER":103.9748,"MEAN_ANOMALY":256.1607,"EPHEMERIS_TYPE":0,"CLASSIFICATION_TYPE":"U","NORAD_CAT_ID":54145,"ELEMENT_SET_NO":999,"REV_AT_EPOCH":14648,"BSTAR":3.4982408e-5,"MEAN_MOTION_DOT":2.7e-7,"MEAN_MOTION_DDOT":0},{"OBJECT_NAME":"ONEWEB-0531","OBJECT_ID":"2022-138AK","EPOCH":"2025-10-30T02:00:03.968928","MEAN_MOTION":13.20771645,"ECCENTRICITY":0.00022753,"INCLINATION":87.9197,"RA_OF_ASC_NODE":320.3264,"ARG_OF_PERICENTER":71.1285,"MEAN_ANOMALY":289.0095,"EPHEMERIS_TYPE":0,"CLASSIFICATION_TYPE":"U","NORAD_CAT_ID":54146,"ELEMENT_SET_NO":999,"REV_AT_EPOCH":14893,"BSTAR":-5.1917352e-5,"MEAN_MOTION_DOT":-8.0e-8,"MEAN_MOTION_DDOT":0},{"OBJECT_NAME":"ONEWEB-0535","OBJECT_ID":"2022-138AL","EPOCH":"2025-10-30T04:52:00.855552","MEAN_MOTION":13.19725983,"ECCENTRICITY":0.00017658,"INCLINATION":87.9247,"RA_OF_ASC_NODE":350.7015,"ARG_OF_PERICENTER":90.1152,"MEAN_ANOMALY":270.0183,"EPHEMERIS_TYPE":0,"CLASSIFICATION_TYPE":"U","NORAD_CAT_ID":54147,"ELEMENT_SET_NO":999,"REV_AT_EPOCH":14650,"BSTAR":0.00015509403,"MEAN_MOTION_DOT":7.5e-7,"MEAN_MOTION_DDOT":0},{"OBJECT_NAME":"ONEWEB-0536","OBJECT_ID":"2022-138AM","EPOCH":"2025-10-30T07:09:08.871840","MEAN_MOTION":13.20771116,"ECCENTRICITY":0.00025281,"INCLINATION":87.919,"RA_OF_ASC_NODE":320.3302,"ARG_OF_PERICENTER":71.4654,"MEAN_ANOMALY":288.6754,"EPHEMERIS_TYPE":0,"CLASSIFICATION_TYPE":"U","NORAD_CAT_ID":54148,"ELEMENT_SET_NO":999,"REV_AT_EPOCH":14895,"BSTAR":0.00038603049,"MEAN_MOTION_DOT":1.7e-6,"MEAN_MOTION_DDOT":0},{"OBJECT_NAME":"ONEWEB-0527","OBJECT_ID":"2022-166A","EPOCH":"2025-10-30T04:55:15.105216","MEAN_MOTION":13.21827581,"ECCENTRICITY":0.00019732,"INCLINATION":87.9171,"RA_OF_ASC_NODE":289.8826,"ARG_OF_PERICENTER":88.4083,"MEAN_ANOMALY":271.7277,"EPHEMERIS_TYPE":0,"CLASSIFICATION_TYPE":"U","NORAD_CAT_ID":54642,"ELEMENT_SET_NO":999,"REV_AT_EPOCH":14115,"BSTAR":0.00013541427,"MEAN_MOTION_DOT":6.9e-7,"MEAN_MOTION_DDOT":0}]
